CCSDS_OMM_VERS = 2.0
CREATION_DATE  = 
ORIGINATOR     = 

OBJECT_NAME    = STARLINK-36211
OBJECT_ID      = 2025-304AC
CENTER_NAME    = EARTH
REF_FRAME      = TEME
TIME_SYSTEM    = UTC
MEAN_ELEMENT_THEORY = SGP/SGP4

EPOCH          = 2026-01-04T22:00:01.999584
MEAN_MOTION    = 15.52503063
ECCENTRICITY   = .0002877
INCLINATION    = 70.0000
RA_OF_ASC_NODE = 342.1044
ARG_OF_PERICENTER = 265.5933
MEAN_ANOMALY   = 358.6297

EPHEMERIS_TYPE = 0
CLASSIFICATION_TYPE = U
NORAD_CAT_ID   = 67218
ELEMENT_SET_NO = 999
REV_AT_EPOCH   = 416
BSTAR          = .29191842E-4
MEAN_MOTION_DOT = .1628E-4
MEAN_MOTION_DDOT = 0

CCSDS_OMM_VERS = 2.0
CREATION_DATE  = 
ORIGINATOR     = 

OBJECT_NAME    = DISKSAT A
OBJECT_ID      = 2025-305A
CENTER_NAME    = EARTH
REF_FRAME      = TEME
TIME_SYSTEM    = UTC
MEAN_ELEMENT_THEORY = SGP/SGP4

EPOCH          = 2025-12-20T09:08:30.149664
MEAN_MOTION    = 15.05762698
ECCENTRICITY   = .0003912
INCLINATION    = 45.0057
RA_OF_ASC_NODE = 310.0654
ARG_OF_PERICENTER = 276.1097
MEAN_ANOMALY   = 83.9332

EPHEMERIS_TYPE = 0
CLASSIFICATION_TYPE = U
NORAD_CAT_ID   = 67219
ELEMENT_SET_NO = 999
REV_AT_EPOCH   = 33
BSTAR          = .50887E-4
MEAN_MOTION_DOT = .51E-5
MEAN_MOTION_DDOT = 0

CCSDS_OMM_VERS = 2.0
CREATION_DATE  = 
ORIGINATOR     = 

OBJECT_NAME    = DISKSAT B
OBJECT_ID      = 2025-305B
CENTER_NAME    = EARTH
REF_FRAME      = TEME
TIME_SYSTEM    = UTC
MEAN_ELEMENT_THEORY = SGP/SGP4

EPOCH          = 2025-12-20T05:57:31.803264
MEAN_MOTION    = 15.05702195
ECCENTRICITY   = .0004681
INCLINATION    = 45.0108
RA_OF_ASC_NODE = 310.7693
ARG_OF_PERICENTER = 270.4757
MEAN_ANOMALY   = 89.5581

EPHEMERIS_TYPE = 0
CLASSIFICATION_TYPE = U
NORAD_CAT_ID   = 67220
ELEMENT_SET_NO = 999
REV_AT_EPOCH   = 31
BSTAR          = .51086E-4
MEAN_MOTION_DOT = .511E-5
MEAN_MOTION_DDOT = 0

CCSDS_OMM_VERS = 2.0
CREATION_DATE  = 
ORIGINATOR     = 

OBJECT_NAME    = DISKSAT C
OBJECT_ID      = 2025-305C
CENTER_NAME    = EARTH
REF_FRAME      = TEME
TIME_SYSTEM    = UTC
MEAN_ELEMENT_THEORY = SGP/SGP4

EPOCH          = 2025-12-20T07:33:11.308608
MEAN_MOTION    = 15.05653670
ECCENTRICITY   = .00043877
INCLINATION    = 45.0067
RA_OF_ASC_NODE = 310.4143
ARG_OF_PERICENTER = 282.7791
MEAN_ANOMALY   = 77.2594

EPHEMERIS_TYPE = 0
CLASSIFICATION_TYPE = U
NORAD_CAT_ID   = 67221
ELEMENT_SET_NO = 999
REV_AT_EPOCH   = 31
BSTAR          = .10190761E-3
MEAN_MOTION_DOT = .1256E-4
MEAN_MOTION_DDOT = 0

CCSDS_OMM_VERS = 2.0
CREATION_DATE  = 
ORIGINATOR     = 

OBJECT_NAME    = DISKSAT D
OBJECT_ID      = 2025-305D
CENTER_NAME    = EARTH
REF_FRAME      = TEME
TIME_SYSTEM    = UTC
MEAN_ELEMENT_THEORY = SGP/SGP4

EPOCH          = 2025-12-20T07:33:21.625632
MEAN_MOTION    = 15.05567005
ECCENTRICITY   = .00044772
INCLINATION    = 45.0056
RA_OF_ASC_NODE = 310.4150
ARG_OF_PERICENTER = 287.6101
MEAN_ANOMALY   = 72.4284

EPHEMERIS_TYPE = 0
CLASSIFICATION_TYPE = U
NORAD_CAT_ID   = 67222
ELEMENT_SET_NO = 999
REV_AT_EPOCH   = 31
BSTAR          = .10184381E-3
MEAN_MOTION_DOT = .1252E-4
MEAN_MOTION_DDOT = 0

CCSDS_OMM_VERS = 2.0
CREATION_DATE  = 
ORIGINATOR     = 

OBJECT_NAME    = ELECTRON KICK STAGE R/B
OBJECT_ID      = 2025-305E
CENTER_NAME    = EARTH
REF_FRAME      = TEME
TIME_SYSTEM    = UTC
MEAN_ELEMENT_THEORY = SGP/SGP4

EPOCH          = 2025-12-23T06:58:48.011808
MEAN_MOTION    = 15.48545747
ECCENTRICITY   = .017749
INCLINATION    = 44.9877
RA_OF_ASC_NODE = 292.9264
ARG_OF_PERICENTER = 166.6089
MEAN_ANOMALY   = 193.9601

EPHEMERIS_TYPE = 0
CLASSIFICATION_TYPE = U
NORAD_CAT_ID   = 67223
ELEMENT_SET_NO = 999
REV_AT_EPOCH   = 79
BSTAR          = .18366E-3
MEAN_MOTION_DOT = .18707E-3
MEAN_MOTION_DDOT = 0

CCSDS_OMM_VERS = 2.0
CREATION_DATE  = 
ORIGINATOR     = 

OBJECT_NAME    = ELECTRON R/B
OBJECT_ID      = 2025-305F
CENTER_NAME    = EARTH
REF_FRAME      = TEME
TIME_SYSTEM    = UTC
MEAN_ELEMENT_THEORY = SGP/SGP4

EPOCH          = 2026-01-04T07:29:57.077952
MEAN_MOTION    = 16.11003637
ECCENTRICITY   = .01104315
INCLINATION    = 44.9966
RA_OF_ASC_NODE = 220.2123
ARG_OF_PERICENTER = 18.8901
MEAN_ANOMALY   = 341.6063

EPHEMERIS_TYPE = 0
CLASSIFICATION_TYPE = U
NORAD_CAT_ID   = 67224
ELEMENT_SET_NO = 999
REV_AT_EPOCH   = 270
BSTAR          = .2780164E-3
MEAN_MOTION_DOT = .819341E-2
MEAN_MOTION_DDOT = .9980883E-5

CCSDS_OMM_VERS = 2.0
CREATION_DATE  = 
ORIGINATOR     = 

OBJECT_NAME    = TJS-23
OBJECT_ID      = 2025-306A
CENTER_NAME    = EARTH
REF_FRAME      = TEME
TIME_SYSTEM    = UTC
MEAN_ELEMENT_THEORY = SGP/SGP4

EPOCH          = 2026-01-04T01:17:25.600128
MEAN_MOTION    = 1.00276266
ECCENTRICITY   = .0001023
INCLINATION    = 5.9617
RA_OF_ASC_NODE = 298.3416
ARG_OF_PERICENTER = 288.2335
MEAN_ANOMALY   = 71.9829

EPHEMERIS_TYPE = 0
CLASSIFICATION_TYPE = U
NORAD_CAT_ID   = 67226
ELEMENT_SET_NO = 999
REV_AT_EPOCH   = 24
BSTAR          = 0
MEAN_MOTION_DOT = .25E-6
MEAN_MOTION_DDOT = 0

CCSDS_OMM_VERS = 2.0
CREATION_DATE  = 
ORIGINATOR     = 

OBJECT_NAME    = CZ-5 R/B
OBJECT_ID      = 2025-306B
CENTER_NAME    = EARTH
REF_FRAME      = TEME
TIME_SYSTEM    = UTC
MEAN_ELEMENT_THEORY = SGP/SGP4

EPOCH          = 2026-01-02T05:45:14.889024
MEAN_MOTION    = 1.92311739
ECCENTRICITY   = .7582788
INCLINATION    = 16.3556
RA_OF_ASC_NODE = 294.8442
ARG_OF_PERICENTER = 186.5720
MEAN_ANOMALY   = 149.5922

EPHEMERIS_TYPE = 0
CLASSIFICATION_TYPE = U
NORAD_CAT_ID   = 67227
ELEMENT_SET_NO = 999
REV_AT_EPOCH   = 26
BSTAR          = .95745E-3
MEAN_MOTION_DOT = .3994E-4
MEAN_MOTION_DDOT = 0

CCSDS_OMM_VERS = 2.0
CREATION_DATE  = 
ORIGINATOR     = 

OBJECT_NAME    = QPS-SAR-15
OBJECT_ID      = 2025-307A
CENTER_NAME    = EARTH
REF_FRAME      = TEME
TIME_SYSTEM    = UTC
MEAN_ELEMENT_THEORY = SGP/SGP4

EPOCH          = 2026-01-04T12:11:49.481376
MEAN_MOTION    = 14.97257565
ECCENTRICITY   = .0008987
INCLINATION    = 42.0077
RA_OF_ASC_NODE = 45.6549
ARG_OF_PERICENTER = 354.8185
MEAN_ANOMALY   = 5.2545

EPHEMERIS_TYPE = 0
CLASSIFICATION_TYPE = U
NORAD_CAT_ID   = 67228
ELEMENT_SET_NO = 999
REV_AT_EPOCH   = 213
BSTAR          = .62837E-3
MEAN_MOTION_DOT = .723E-4
MEAN_MOTION_DDOT = 0

CCSDS_OMM_VERS = 2.0
CREATION_DATE  = 
ORIGINATOR     = 

OBJECT_NAME    = ELECTRON KICK STAGE R/B
OBJECT_ID      = 2025-307B
CENTER_NAME    = EARTH
REF_FRAME      = TEME
TIME_SYSTEM    = UTC
MEAN_ELEMENT_THEORY = SGP/SGP4

EPOCH          = 2026-01-04T10:42:15.647616
MEAN_MOTION    = 15.69320985
ECCENTRICITY   = .01978614
INCLINATION    = 41.9988
RA_OF_ASC_NODE = 38.1050
ARG_OF_PERICENTER = 338.3538
MEAN_ANOMALY   = 20.9037

EPHEMERIS_TYPE = 0
CLASSIFICATION_TYPE = U
NORAD_CAT_ID   = 67229
ELEMENT_SET_NO = 999
REV_AT_EPOCH   = 221
BSTAR          = .18609767E-2
MEAN_MOTION_DOT = .742932E-2
MEAN_MOTION_DDOT = .17902069E-3

CCSDS_OMM_VERS = 2.0
CREATION_DATE  = 
ORIGINATOR     = 

OBJECT_NAME    = ELECTRON R/B
OBJECT_ID      = 2025-307C
CENTER_NAME    = EARTH
REF_FRAME      = TEME
TIME_SYSTEM    = UTC
MEAN_ELEMENT_THEORY = SGP/SGP4

EPOCH          = 2025-12-21T08:41:59.140320
MEAN_MOTION    = 15.55087105
ECCENTRICITY   = .02614087
INCLINATION    = 41.9820
RA_OF_ASC_NODE = 123.1026
ARG_OF_PERICENTER = 268.1410
MEAN_ANOMALY   = 88.9482

EPHEMERIS_TYPE = 0
CLASSIFICATION_TYPE = U
NORAD_CAT_ID   = 67230
ELEMENT_SET_NO = 999
REV_AT_EPOCH   = 1
BSTAR          = .20247584E-3
MEAN_MOTION_DOT = .71881E-3
MEAN_MOTION_DDOT = .8106877E-5

